STARLINK-30374          
1 57809U 23138B   26068.76877028 -.00000468  00000+0 -74695-5 0  9998
2 57809  43.0014 233.4579 0001723 289.6871  70.3794 15.27584414138755
2025-313BE              
1 67482U 25313BE  26068.69721505  .00077178  00000+0  26504-2 0  9996
2 67482  97.3989 145.3568 0007208 335.3714  24.7181 15.29801687  7972
